Total gap duration: 5:48:53.714174
STARLINK-5318
1 55304U 23010AM  24101.11155018 -.00000857  00000+0 -64023-4 0  9993
2 55304  70.0001 345.6300 0002915 268.7704  91.3121 14.98322529 68320
Total gap duration: 5:48:18.190769
STARLINK-5382
1 54820U 22177A   24101.01738199  .00003320  00000+0  26070-3 0  9999
2 54820  43.0034 330.0023 0001411 272.1841  87.8839 15.02543160 70870
Total gap duration: 5:44:50.580993
STARLINK-3598
1 51897U 22022AX  24100.69793482  .00000314  00000+0  37853-4 0  9990
2 51897  53.2177 257.0176 0001770  83.3415 276.7778 15.08840471117724
Total gap duration: 5:46:58.832319
STARLINK-1479
1 45740U 20038L   24100.82783533  .00001916  00000+0  14751-3 0  9996
2 45740  53.0543 133.9309 0001298  93.9322 266.1815 15.06396257210857
Total gap duration: 5:45:36.453686
STARLINK-2587
1 48399U 21038AY  24100.65044091  .00001657  00000+0  13010-3 0  9999
2 48399  53.0560 239.7224 0001592  92.0314 268.0857 15.06394591163154
Total gap duration: 5:47:18.793506
STARLINK-1758
1 46380U 20062BH  24101.41020883  .00000693  00000+0  65472-4 0  9990
2 46380  53.0518 251.3129 0001944  85.4028 274.7182 15.06388139199524
Total gap duration: 5:49:13.780410
STARLINK-1817
1 46715U 20073AX  24101.49267597  .00002803  00000+0  20695-3 0  9999
2 46715  53.0523 135.9441 0001444  91.1552 268.9603 15.06411093192372
Total gap duration: 5:46:00.675200
STARLINK-6120
1 56131U 23046AR  24100.95056316  .00000733  00000+0  69335-4 0  9995
2 56131  43.0039 342.7088 0001325 267.3804  92.6886 15.02532578 57100
Total gap duration: 5:43:34.164992
STARLINK-5274
1 55395U 23014E   24101.48335000 -.00009198  00000+0 -76369-3 0  9990
2 55395  70.0050  24.7645 0002641 270.7760  89.3096 14.98349616 66537
Total gap duration: 5:48:53.714174
STARLINK-2253
1 48596U 21041AV  24101.55349550 -.00000576  00000+0 -19779-4 0  9990
2 48596  53.0570  35.6689 0001562  88.2828 271.8340 15.06395270160292
Total gap duration: 5:47:34.998528
